{
  "type": "FeatureCollection",
  "features": [
    {
      "type": "Feature",
      "properties": {
        "norad_id": 31307,
        "name": "GALAXY 17 (G-17)",
        "group": "intelsat",
        "lat": 1.3428669956247334,
        "lon": -130.30004692191113,
        "alt_km": 35765.99718204429,
        "timestamp": "2025-12-23T14:49:08.997649+00:00",
        "meta_object_name": "GALAXY 17 (G-17)",
        "meta_object_id": "2007-016B",
        "meta_epoch": "2025-12-23T04:10:07.906368",
        "meta_mean_motion": 1.00269631,
        "meta_eccentricity": 0.0005341,
        "meta_inclination": 2.5245,
        "meta_ra_of_asc_node": 82.1678,
        "meta_arg_of_pericenter": 171.9507,
        "meta_mean_anomaly": 175.3964,
        "meta_ephemeris_type": 0,
        "meta_classification_type": "U",
        "meta_norad_cat_id": 31307,
        "meta_element_set_no": 999,
        "meta_rev_at_epoch": 6803,
        "meta_bstar": 0,
        "meta_mean_motion_dot": -1.86e-06,
        "meta_mean_motion_ddot": 0,
        "tle_line1": "1 31307U 07016B   25357.17370262 -.00000186  00000+0  00000+0 0  9992",
        "tle_line2": "2 31307   2.5245  82.1678 0005341 171.9507 175.3964  1.00269631 68039"
      },
      "geometry": {
        "type": "Point",
        "coordinates": [
          -130.30004692191113,
          1.3428669956247334
        ]
      }
    },
    {
      "type": "Feature",
      "properties": {
        "norad_id": 31862,
        "name": "DIRECTV 10",
        "group": "intelsat",
        "lat": -0.0007070655595437186,
        "lon": -148.10083217946385,
        "alt_km": 35784.55676988135,
        "timestamp": "2025-12-23T14:49:08.997662+00:00",
        "meta_object_name": "DIRECTV 10",
        "meta_object_id": "2007-032A",
        "meta_epoch": "2025-12-22T14:23:17.397024",
        "meta_mean_motion": 1.00274167,
        "meta_eccentricity": 2.112e-05,
        "meta_inclination": 0.0071,
        "meta_ra_of_asc_node": 104.9786,
        "meta_arg_of_pericenter": 118.9337,
        "meta_mean_anomaly": 340.5167,
        "meta_ephemeris_type": 0,
        "meta_classification_type": "U",
        "meta_norad_cat_id": 31862,
        "meta_element_set_no": 999,
        "meta_rev_at_epoch": 4382,
        "meta_bstar": 0,
        "meta_mean_motion_dot": -8.2e-07,
        "meta_mean_motion_ddot": 0,
        "tle_line1": "1 31862U 07032A   25356.59950691 -.00000082  00000+0  00000+0 0  9996",
        "tle_line2": "2 31862   0.0071 104.9786 0000211 118.9337 340.5167  1.00274167 43822"
      },
      "geometry": {
        "type": "Point",
        "coordinates": [
          -148.10083217946385,
          -0.0007070655595437186
        ]
      }
    },
    {
      "type": "Feature",
      "properties": {
        "norad_id": 32253,
        "name": "INTELSAT 11 (IS-11)",
        "group": "intelsat",
        "lat": 2.456161009262994,
        "lon": 132.4321871789075,
        "alt_km": 36148.47417513549,
        "timestamp": "2025-12-23T14:49:08.997675+00:00",
        "meta_object_name": "INTELSAT 11 (IS-11)",
        "meta_object_id": "2007-044B",
        "meta_epoch": "2025-12-23T03:42:55.513152",
        "meta_mean_motion": 0.99052878,
        "meta_eccentricity": 0.00085567,
        "meta_inclination": 3.1056,
        "meta_ra_of_asc_node": 80.8614,
        "meta_arg_of_pericenter": 170.1579,
        "meta_mean_anomaly": 76.5623,
        "meta_ephemeris_type": 0,
        "meta_classification_type": "U",
        "meta_norad_cat_id": 32253,
        "meta_element_set_no": 999,
        "meta_rev_at_epoch": 6670,
        "meta_bstar": 0,
        "meta_mean_motion_dot": -1.38e-06,
        "meta_mean_motion_ddot": 0,
        "tle_line1": "1 32253U 07044B   25357.15480918 -.00000138  00000+0  00000+0 0  9999",
        "tle_line2": "2 32253   3.1056  80.8614 0008556 170.1579  76.5623  0.99052878 66709"
      },
      "geometry": {
        "type": "Point",
        "coordinates": [
          132.4321871789075,
          2.456161009262994
        ]
      }
    },
    {
      "type": "Feature",
      "properties": {
        "norad_id": 32388,
        "name": "HORIZONS-2",
        "group": "intelsat",
        "lat": 0.7865741543307718,
        "lon": -119.1200350926687,
        "alt_km": 35770.684651999465,
        "timestamp": "2025-12-23T14:49:08.997694+00:00",
        "meta_object_name": "HORIZONS-2",
        "meta_object_id": "2007-063B",
        "meta_epoch": "2025-12-23T03:26:55.180608",
        "meta_mean_motion": 1.00270554,
        "meta_eccentricity": 0.00046646,
        "meta_inclination": 2.147,
        "meta_ra_of_asc_node": 82.8487,
        "meta_arg_of_pericenter": 195.5064,
        "meta_mean_anomaly": 151.5248,
        "meta_ephemeris_type": 0,
        "meta_classification_type": "U",
        "meta_norad_cat_id": 32388,
        "meta_element_set_no": 999,
        "meta_rev_at_epoch": 6604,
        "meta_bstar": 0,
        "meta_mean_motion_dot": -2.33e-06,
        "meta_mean_motion_ddot": 0,
        "tle_line1": "1 32388U 07063B   25357.14369422 -.00000233  00000+0  00000+0 0  9990",
        "tle_line2": "2 32388   2.1470  82.8487 0004664 195.5064 151.5248  1.00270554 66043"
      },
      "geometry": {
        "type": "Point",
        "coordinates": [
          -119.1200350926687,
          0.7865741543307718
        ]
      }
    },
    {
      "type": "Feature",
      "properties": {
        "norad_id": 32729,
        "name": "DIRECTV 11",
        "group": "intelsat",
        "lat": -0.019045977764394706,
        "lon": -144.5299607164113,
        "alt_km": 35784.796027756594,
        "timestamp": "2025-12-23T14:49:08.997706+00:00",
        "meta_object_name": "DIRECTV 11",
        "meta_object_id": "2008-013A",
        "meta_epoch": "2025-12-21T16:09:00.789984",
        "meta_mean_motion": 1.00267418,
        "meta_eccentricity": 8.567e-05,
        "meta_inclination": 0.0458,
        "meta_ra_of_asc_node": 200.3144,
        "meta_arg_of_pericenter": 330.5483,
        "meta_mean_anomaly": 62.6867,
        "meta_ephemeris_type": 0,
        "meta_classification_type": "U",
        "meta_norad_cat_id": 32729,
        "meta_element_set_no": 999,
        "meta_rev_at_epoch": 4381,
        "meta_bstar": 0,
        "meta_mean_motion_dot": -1.03e-06,
        "meta_mean_motion_ddot": 0,
        "tle_line1": "1 32729U 08013A   25355.67292581 -.00000103  00000+0  00000+0 0  9998",
        "tle_line2": "2 32729   0.0458 200.3144 0000856 330.5483  62.6867  1.00267418 43811"
      },
      "geometry": {
        "type": "Point",
        "coordinates": [
          -144.5299607164113,
          -0.019045977764394706
        ]
      }
    },
    {
      "type": "Feature",
      "properties": {
        "norad_id": 32951,
        "name": "GALAXY 18 (G-18)",
        "group": "intelsat",
        "lat": -0.013868104292367551,
        "lon": -168.356575571489,
        "alt_km": 35784.92317779708,
        "timestamp": "2025-12-23T14:49:08.997720+00:00",
        "meta_object_name": "GALAXY 18 (G-18)",
        "meta_object_id": "2008-024A",
        "meta_epoch": "2025-12-23T05:48:55.381824",
        "meta_mean_motion": 1.00271974,
        "meta_eccentricity": 0.00029187,
        "meta_inclination": 0.0164,
        "meta_ra_of_asc_node": 296.5123,
        "meta_arg_of_pericenter": 340.1178,
        "meta_mean_anomaly": 139.6266,
        "meta_ephemeris_type": 0,
        "meta_classification_type": "U",
        "meta_norad_cat_id": 32951,
        "meta_element_set_no": 999,
        "meta_rev_at_epoch": 4408,
        "meta_bstar": 0,
        "meta_mean_motion_dot": 4.6e-07,
        "meta_mean_motion_ddot": 0,
        "tle_line1": "1 32951U 08024A   25357.24230766  .00000046  00000+0  00000+0 0  9994",
        "tle_line2": "2 32951   0.0164 296.5123 0002918 340.1178 139.6266  1.00271974 44085"
      },
      "geometry": {
        "type": "Point",
        "coordinates": [
          -168.356575571489,
          -0.013868104292367551
        ]
      }
    },
    {
      "type": "Feature",
      "properties": {
        "norad_id": 33153,
        "name": "INTELSAT 25 (IS-25)",
        "group": "intelsat",
        "lat": -0.8190106671979739,
        "lon": -76.8114404305148,
        "alt_km": 35766.001064656804,
        "timestamp": "2025-12-23T14:49:08.997732+00:00",
        "meta_object_name": "INTELSAT 25 (IS-25)",
        "meta_object_id": "2008-034A",
        "meta_epoch": "2025-12-23T06:08:04.061184",
        "meta_mean_motion": 1.0027274,
        "meta_eccentricity": 0.00048491,
        "meta_inclination": 2.2531,
        "meta_ra_of_asc_node": 82.5374,
        "meta_arg_of_pericenter": 186.828,
        "meta_mean_anomaly": 243.1998,
        "meta_ephemeris_type": 0,
        "meta_classification_type": "U",
        "meta_norad_cat_id": 33153,
        "meta_element_set_no": 999,
        "meta_rev_at_epoch": 6393,
        "meta_bstar": 0,
        "meta_mean_motion_dot": -2.04e-06,
        "meta_mean_motion_ddot": 0,
        "tle_line1": "1 33153U 08034A   25357.25560256 -.00000204  00000+0  00000+0 0  9998",
        "tle_line2": "2 33153   2.2531  82.5374 0004849 186.8280 243.1998  1.00272740 63937"
      },
      "geometry": {
        "type": "Point",
        "coordinates": [
          -76.8114404305148,
          -0.8190106671979739
        ]
      }
    }
  ]
}